<?xml version="1.0" encoding="UTF-8"?>
<kml xmlns="http://www.opengis.net/kml/2.2">
  <Document>
    <name>Trayectoria GPS</name>
    <Style id="lineaRuta">
      <LineStyle>
        <color>ff0000ff</color>
        <width>4</width>
      </LineStyle>
    </Style>
    <Placemark>
      <name>Ruta completa</name>
      <styleUrl>#lineaRuta</styleUrl>
      <LineString>
        <coordinates>
          -79.96289922,-2.1456312,0 -79.96288715,-2.14562738,0 -79.96287796,-2.1456225,0 -79.96286912,-2.14561974,0 -79.96286889,-2.14563321,0 -79.96286955,-2.14562626,0 -79.96287659,-2.14562363,0 -79.96287264,-2.14562237,0 -79.96286775,-2.14561101,0 -79.962855,-2.14560584,0 -79.9628439,-2.14560867,0 -79.96283275,-2.14560494,0 -79.96284132,-2.145603,0 -79.96284996,-2.14559505,0 -79.9628528,-2.1455929,0 -79.96285039,-2.14560488,0 -79.96285317,-2.14561929,0 -79.96285386,-2.14561709,0 -79.9628609,-2.14560772,0 -79.96286494,-2.14561076,0 -79.96285915,-2.14560969,0 -79.96285725,-2.14562418,0 -79.9628457,-2.14563228,0 -79.96283624,-2.14564162,0 -79.96283629,-2.14565534,0 -79.96282997,-2.14566848,0 -79.96282925,-2.1456634,0 -79.9628405,-2.14565961,0 -79.96285282,-2.14565448,0 -79.96286673,-2.14565025,0 -79.96287937,-2.14565113,0 -79.96288365,-2.14566016,0
        </coordinates>
      </LineString>
    </Placemark>
  </Document>
</kml>