<?xml version="1.0" encoding="UTF-8"?>
<kml xmlns="http://www.opengis.net/kml/2.2">
  <Document>
    <name>Trayectoria GPS</name>
    <Style id="lineaRuta">
      <LineStyle>
        <color>ff0000ff</color>
        <width>4</width>
      </LineStyle>
    </Style>
    <Placemark>
      <name>Ruta completa</name>
      <styleUrl>#lineaRuta</styleUrl>
      <LineString>
        <coordinates>
          -79.96292465,-2.14565661,0 -79.96291465,-2.14566344,0 -79.96290465,-2.14566997,0 -79.9628951,-2.14567473,0 -79.96290562,-2.1456831,0 -79.96289854,-2.14567934,0 -79.96290024,-2.14567095,0 -79.96289578,-2.14567234,0 -79.96288229,-2.145672,0 -79.96286917,-2.14567493,0 -79.96286132,-2.14568377,0 -79.9628532,-2.14569061,0 -79.96285683,-2.14568197,0 -79.96285438,-2.14566976,0 -79.96285139,-2.14565661,0 -79.96285423,-2.14564345,0 -79.96286446,-2.1456354,0 -79.96286432,-2.14564605,0 -79.96286434,-2.14565809,0 -79.96287052,-2.14566877,0 -79.96286571,-2.1456719,0 -79.96287395,-2.1456825,0 -79.96287465,-2.14569579,0 -79.96287699,-2.14570877,0 -79.96288865,-2.14571281,0 -79.96289465,-2.14572406,0 -79.96289001,-2.14572059,0 -79.96289741,-2.1457096,0 -79.96289798,-2.14569623,0 -79.96289817,-2.14568277,0 -79.96290521,-2.14567258,0 -79.96291465,-2.14567295,0
        </coordinates>
      </LineString>
    </Placemark>
  </Document>
</kml>