<?xml version="1.0" encoding="UTF-8"?>
<kml xmlns="http://www.opengis.net/kml/2.2">
  <Document>
    <name>Trayectoria GPS</name>
    <Style id="lineaRuta">
      <LineStyle>
        <color>ff0000ff</color>
        <width>4</width>
      </LineStyle>
    </Style>
    <Placemark>
      <name>Ruta completa</name>
      <styleUrl>#lineaRuta</styleUrl>
      <LineString>
        <coordinates>
          -79.96293728,-2.14567853,0 -79.96294776,-2.14568645,0 -79.96295507,-2.14569578,0 -79.96296389,-2.14570051,0 -79.96295159,-2.14570603,0 -79.96295826,-2.1457029,0 -79.96295692,-2.14569478,0 -79.96296019,-2.14569837,0 -79.96297144,-2.14570323,0 -79.96297972,-2.14571433,0 -79.96298567,-2.14572486,0 -79.96299163,-2.14573372,0 -79.96299069,-2.14572522,0 -79.96299618,-2.14571799,0 -79.96300381,-2.14571334,0 -79.96300029,-2.14570665,0 -79.96299365,-2.14569767,0 -79.96299374,-2.1457056,0 -79.96299073,-2.14571034,0 -79.96297783,-2.14570672,0 -79.96298187,-2.14570851,0 -79.96297202,-2.14571678,0 -79.96296694,-2.14572783,0 -79.9629607,-2.14574048,0 -79.96294901,-2.14574344,0 -79.96293889,-2.14574886,0 -79.96294376,-2.1457464,0 -79.96294139,-2.14573207,0 -79.96294288,-2.14571905,0 -79.9629493,-2.14570637,0 -79.96294656,-2.14569488,0 -79.96293689,-2.14569128,0
        </coordinates>
      </LineString>
    </Placemark>
  </Document>
</kml>