<?xml version="1.0" encoding="UTF-8"?>
<kml xmlns="http://www.opengis.net/kml/2.2">
  <Document>
    <name>Trayectoria GPS</name>
    <Style id="lineaRuta">
      <LineStyle>
        <color>ff0000ff</color>
        <width>4</width>
      </LineStyle>
    </Style>
    <Placemark>
      <name>Ruta completa</name>
      <styleUrl>#lineaRuta</styleUrl>
      <LineString>
        <coordinates>
          -79.895,-2.168731,0 -79.895,-2.168728,0 -79.89499,-2.168719,0 -79.89498,-2.168719,0 -79.89498,-2.16873,0 -79.89499,-2.168738,0 -79.895,-2.168734,0 -79.89502,-2.168731,0 -79.89503,-2.168721,0 -79.89503,-2.168729,0 -79.89503,-2.168736,0 -79.89503,-2.168739,0 -79.89503,-2.168746,0 -79.89503,-2.168748,0 -79.89503,-2.168738,0 -79.89503,-2.168734,0 -79.89504,-2.168729,0 -79.89503,-2.168725,0 -79.89501,-2.16873,0 -79.895,-2.168723,0 -79.89501,-2.168727,0 -79.89503,-2.168736,0 -79.89503,-2.16874,0 -79.89503,-2.168742,0 -79.89502,-2.168734,0 -79.89501,-2.168736,0 -79.89501,-2.168741,0 -79.895,-2.168741,0 -79.895,-2.168741,0 -79.895,-2.16874,0 -79.89502,-2.168744,0 -79.895,-2.168731,0 -79.89501,-2.168742,0 -79.89502,-2.168747,0
        </coordinates>
      </LineString>
    </Placemark>
  </Document>
</kml>