{
    "type": "FeatureCollection",
    "features": [
        {
            "type": "Feature",
            "geometry": {
                "type": "Point",
                "coordinates": [
                    -3.700993,
                    40.5457
                ]
            },
            "properties": {
                "temperatura": 17.19,
                "ph": 2.43,
                "tiempo": "2026-05-05 11:14:26"
            }
        },
        {
            "type": "Feature",
            "geometry": {
                "type": "Point",
                "coordinates": [
                    -3.700991,
                    40.54571
                ]
            },
            "properties": {
                "temperatura": 17.06,
                "ph": 2.5,
                "tiempo": "2026-05-05 11:14:32"
            }
        },
        {
            "type": "Feature",
            "geometry": {
                "type": "Point",
                "coordinates": [
                    -3.700983,
                    40.54572
                ]
            },
            "properties": {
                "temperatura": 16.87,
                "ph": 2.44,
                "tiempo": "2026-05-05 11:14:37"
            }
        },
        {
            "type": "Feature",
            "geometry": {
                "type": "Point",
                "coordinates": [
                    -3.700979,
                    40.54573
                ]
            },
            "properties": {
                "temperatura": 16.75,
                "ph": 2.41,
                "tiempo": "2026-05-05 11:14:43"
            }
        },
        {
            "type": "Feature",
            "geometry": {
                "type": "Point",
                "coordinates": [
                    -3.70098,
                    40.54573
                ]
            },
            "properties": {
                "temperatura": 16.62,
                "ph": 2.34,
                "tiempo": "2026-05-05 11:14:48"
            }
        },
        {
            "type": "Feature",
            "geometry": {
                "type": "Point",
                "coordinates": [
                    -3.700986,
                    40.54572
                ]
            },
            "properties": {
                "temperatura": 16.56,
                "ph": 2.38,
                "tiempo": "2026-05-05 11:14:54"
            }
        },
        {
            "type": "Feature",
            "geometry": {
                "type": "Point",
                "coordinates": [
                    -3.700982,
                    40.54571
                ]
            },
            "properties": {
                "temperatura": 16.44,
                "ph": 2.05,
                "tiempo": "2026-05-05 11:15:00"
            }
        },
        {
            "type": "Feature",
            "geometry": {
                "type": "Point",
                "coordinates": [
                    -3.700987,
                    40.54571
                ]
            },
            "properties": {
                "temperatura": 16.37,
                "ph": 2.18,
                "tiempo": "2026-05-05 11:15:06"
            }
        },
        {
            "type": "Feature",
            "geometry": {
                "type": "Point",
                "coordinates": [
                    -3.700985,
                    40.54572
                ]
            },
            "properties": {
                "temperatura": 16.31,
                "ph": 2.24,
                "tiempo": "2026-05-05 11:15:12"
            }
        },
        {
            "type": "Feature",
            "geometry": {
                "type": "Point",
                "coordinates": [
                    -3.700979,
                    40.54572
                ]
            },
            "properties": {
                "temperatura": 16.25,
                "ph": 2.17,
                "tiempo": "2026-05-05 11:15:18"
            }
        },
        {
            "type": "Feature",
            "geometry": {
                "type": "Point",
                "coordinates": [
                    -3.70098,
                    40.54572
                ]
            },
            "properties": {
                "temperatura": 16.31,
                "ph": 2.16,
                "tiempo": "2026-05-05 11:15:24"
            }
        },
        {
            "type": "Feature",
            "geometry": {
                "type": "Point",
                "coordinates": [
                    -3.700975,
                    40.54572
                ]
            },
            "properties": {
                "temperatura": 16.31,
                "ph": 2.3,
                "tiempo": "2026-05-05 11:15:30"
            }
        },
        {
            "type": "Feature",
            "geometry": {
                "type": "Point",
                "coordinates": [
                    -3.700977,
                    40.54572
                ]
            },
            "properties": {
                "temperatura": 16.25,
                "ph": 2.11,
                "tiempo": "2026-05-05 11:15:36"
            }
        },
        {
            "type": "Feature",
            "geometry": {
                "type": "Point",
                "coordinates": [
                    -3.70098,
                    40.54572
                ]
            },
            "properties": {
                "temperatura": 16.25,
                "ph": 2.17,
                "tiempo": "2026-05-05 11:15:42"
            }
        },
        {
            "type": "Feature",
            "geometry": {
                "type": "Point",
                "coordinates": [
                    -3.700982,
                    40.54571
                ]
            },
            "properties": {
                "temperatura": 16.25,
                "ph": 2.11,
                "tiempo": "2026-05-05 11:15:48"
            }
        },
        {
            "type": "Feature",
            "geometry": {
                "type": "Point",
                "coordinates": [
                    -3.700984,
                    40.54571
                ]
            },
            "properties": {
                "temperatura": 16.25,
                "ph": 2.19,
                "tiempo": "2026-05-05 11:15:54"
            }
        },
        {
            "type": "Feature",
            "geometry": {
                "type": "Point",
                "coordinates": [
                    -3.700987,
                    40.54571
                ]
            },
            "properties": {
                "temperatura": 16.25,
                "ph": 2.15,
                "tiempo": "2026-05-05 11:16:00"
            }
        },
        {
            "type": "Feature",
            "geometry": {
                "type": "Point",
                "coordinates": [
                    -3.700986,
                    40.54571
                ]
            },
            "properties": {
                "temperatura": 16.25,
                "ph": 2.01,
                "tiempo": "2026-05-05 11:16:06"
            }
        },
        {
            "type": "Feature",
            "geometry": {
                "type": "Point",
                "coordinates": [
                    -3.700986,
                    40.54571
                ]
            },
            "properties": {
                "temperatura": 16.25,
                "ph": 2.16,
                "tiempo": "2026-05-05 11:16:12"
            }
        },
        {
            "type": "Feature",
            "geometry": {
                "type": "Point",
                "coordinates": [
                    -3.700986,
                    40.54571
                ]
            },
            "properties": {
                "temperatura": 16.31,
                "ph": 2.05,
                "tiempo": "2026-05-05 11:16:18"
            }
        },
        {
            "type": "Feature",
            "geometry": {
                "type": "Point",
                "coordinates": [
                    -3.700981,
                    40.54572
                ]
            },
            "properties": {
                "temperatura": 16.31,
                "ph": 2.08,
                "tiempo": "2026-05-05 11:16:23"
            }
        },
        {
            "type": "Feature",
            "geometry": {
                "type": "Point",
                "coordinates": [
                    -3.700984,
                    40.54572
                ]
            },
            "properties": {
                "temperatura": 16.37,
                "ph": 2.11,
                "tiempo": "2026-05-05 11:16:29"
            }
        },
        {
            "type": "Feature",
            "geometry": {
                "type": "Point",
                "coordinates": [
                    -3.700984,
                    40.54572
                ]
            },
            "properties": {
                "temperatura": 16.37,
                "ph": 2.2,
                "tiempo": "2026-05-05 11:16:35"
            }
        },
        {
            "type": "Feature",
            "geometry": {
                "type": "Point",
                "coordinates": [
                    -3.700986,
                    40.54571
                ]
            },
            "properties": {
                "temperatura": 16.44,
                "ph": 2.21,
                "tiempo": "2026-05-05 11:16:41"
            }
        },
        {
            "type": "Feature",
            "geometry": {
                "type": "Point",
                "coordinates": [
                    -3.700985,
                    40.54571
                ]
            },
            "properties": {
                "temperatura": 16.5,
                "ph": 2.25,
                "tiempo": "2026-05-05 11:16:47"
            }
        },
        {
            "type": "Feature",
            "geometry": {
                "type": "Point",
                "coordinates": [
                    -3.700985,
                    40.54571
                ]
            },
            "properties": {
                "temperatura": 16.56,
                "ph": 2.26,
                "tiempo": "2026-05-05 11:16:52"
            }
        },
        {
            "type": "Feature",
            "geometry": {
                "type": "Point",
                "coordinates": [
                    -3.700984,
                    40.54572
                ]
            },
            "properties": {
                "temperatura": 16.62,
                "ph": 2.23,
                "tiempo": "2026-05-05 11:16:58"
            }
        },
        {
            "type": "Feature",
            "geometry": {
                "type": "Point",
                "coordinates": [
                    -3.700989,
                    40.54572
                ]
            },
            "properties": {
                "temperatura": 16.62,
                "ph": 2.35,
                "tiempo": "2026-05-05 11:17:04"
            }
        },
        {
            "type": "Feature",
            "geometry": {
                "type": "Point",
                "coordinates": [
                    -3.700986,
                    40.54572
                ]
            },
            "properties": {
                "temperatura": 16.62,
                "ph": 2.08,
                "tiempo": "2026-05-05 11:17:09"
            }
        },
        {
            "type": "Feature",
            "geometry": {
                "type": "Point",
                "coordinates": [
                    -3.700986,
                    40.54572
                ]
            },
            "properties": {
                "temperatura": 16.62,
                "ph": 2.15,
                "tiempo": "2026-05-05 11:17:15"
            }
        },
        {
            "type": "Feature",
            "geometry": {
                "type": "Point",
                "coordinates": [
                    -3.700982,
                    40.54572
                ]
            },
            "properties": {
                "temperatura": 16.56,
                "ph": 2.19,
                "tiempo": "2026-05-05 11:17:21"
            }
        },
        {
            "type": "Feature",
            "geometry": {
                "type": "Point",
                "coordinates": [
                    -3.700981,
                    40.54572
                ]
            },
            "properties": {
                "temperatura": 16.5,
                "ph": 2.19,
                "tiempo": "2026-05-05 11:17:27"
            }
        },
        {
            "type": "Feature",
            "geometry": {
                "type": "Point",
                "coordinates": [
                    -3.700981,
                    40.54572
                ]
            },
            "properties": {
                "temperatura": 16.37,
                "ph": 2.29,
                "tiempo": "2026-05-05 11:17:33"
            }
        },
        {
            "type": "Feature",
            "geometry": {
                "type": "Point",
                "coordinates": [
                    -3.700981,
                    40.54571
                ]
            },
            "properties": {
                "temperatura": 16.31,
                "ph": 2.22,
                "tiempo": "2026-05-05 11:17:38"
            }
        },
        {
            "type": "Feature",
            "geometry": {
                "type": "Point",
                "coordinates": [
                    -3.700977,
                    40.5457
                ]
            },
            "properties": {
                "temperatura": 16.19,
                "ph": 2.22,
                "tiempo": "2026-05-05 11:17:45"
            }
        },
        {
            "type": "Feature",
            "geometry": {
                "type": "Point",
                "coordinates": [
                    -3.700975,
                    40.5457
                ]
            },
            "properties": {
                "temperatura": 16.12,
                "ph": 2.27,
                "tiempo": "2026-05-05 11:17:51"
            }
        },
        {
            "type": "Feature",
            "geometry": {
                "type": "Point",
                "coordinates": [
                    -3.700978,
                    40.5457
                ]
            },
            "properties": {
                "temperatura": 16.12,
                "ph": 2.39,
                "tiempo": "2026-05-05 11:17:57"
            }
        },
        {
            "type": "Feature",
            "geometry": {
                "type": "Point",
                "coordinates": [
                    -3.70098,
                    40.5457
                ]
            },
            "properties": {
                "temperatura": 17.37,
                "ph": 2.31,
                "tiempo": "2026-05-05 11:18:03"
            }
        },
        {
            "type": "Feature",
            "geometry": {
                "type": "Point",
                "coordinates": [
                    -3.700979,
                    40.5457
                ]
            },
            "properties": {
                "temperatura": 18.25,
                "ph": 2.29,
                "tiempo": "2026-05-05 11:18:08"
            }
        },
        {
            "type": "Feature",
            "geometry": {
                "type": "Point",
                "coordinates": [
                    -3.700978,
                    40.5457
                ]
            },
            "properties": {
                "temperatura": 18.75,
                "ph": 2.36,
                "tiempo": "2026-05-05 11:18:14"
            }
        },
        {
            "type": "Feature",
            "geometry": {
                "type": "Point",
                "coordinates": [
                    -3.700977,
                    40.5457
                ]
            },
            "properties": {
                "temperatura": 19.12,
                "ph": 2.39,
                "tiempo": "2026-05-05 11:18:20"
            }
        },
        {
            "type": "Feature",
            "geometry": {
                "type": "Point",
                "coordinates": [
                    -3.700978,
                    40.5457
                ]
            },
            "properties": {
                "temperatura": 19.37,
                "ph": 2.31,
                "tiempo": "2026-05-05 11:18:26"
            }
        },
        {
            "type": "Feature",
            "geometry": {
                "type": "Point",
                "coordinates": [
                    -3.700975,
                    40.5457
                ]
            },
            "properties": {
                "temperatura": 19.5,
                "ph": 2.29,
                "tiempo": "2026-05-05 11:18:32"
            }
        },
        {
            "type": "Feature",
            "geometry": {
                "type": "Point",
                "coordinates": [
                    -3.700967,
                    40.5457
                ]
            },
            "properties": {
                "temperatura": 19.19,
                "ph": 3.15,
                "tiempo": "2026-05-05 11:21:20"
            }
        },
        {
            "type": "Feature",
            "geometry": {
                "type": "Point",
                "coordinates": [
                    -3.700974,
                    40.5457
                ]
            },
            "properties": {
                "temperatura": 19.37,
                "ph": 3.31,
                "tiempo": "2026-05-05 11:21:26"
            }
        },
        {
            "type": "Feature",
            "geometry": {
                "type": "Point",
                "coordinates": [
                    -3.700979,
                    40.5457
                ]
            },
            "properties": {
                "temperatura": 19.56,
                "ph": 3.24,
                "tiempo": "2026-05-05 11:21:32"
            }
        },
        {
            "type": "Feature",
            "geometry": {
                "type": "Point",
                "coordinates": [
                    -3.700984,
                    40.5457
                ]
            },
            "properties": {
                "temperatura": 19.69,
                "ph": 2.66,
                "tiempo": "2026-05-05 11:21:38"
            }
        },
        {
            "type": "Feature",
            "geometry": {
                "type": "Point",
                "coordinates": [
                    -3.700986,
                    40.5457
                ]
            },
            "properties": {
                "temperatura": 19.75,
                "ph": 0.11,
                "tiempo": "2026-05-05 11:21:44"
            }
        },
        {
            "type": "Feature",
            "geometry": {
                "type": "Point",
                "coordinates": [
                    -3.700985,
                    40.5457
                ]
            },
            "properties": {
                "temperatura": 19.87,
                "ph": 1.66,
                "tiempo": "2026-05-05 11:21:50"
            }
        },
        {
            "type": "Feature",
            "geometry": {
                "type": "Point",
                "coordinates": [
                    -3.700986,
                    40.5457
                ]
            },
            "properties": {
                "temperatura": 19.94,
                "ph": -2.54,
                "tiempo": "2026-05-05 11:21:56"
            }
        },
        {
            "type": "Feature",
            "geometry": {
                "type": "Point",
                "coordinates": [
                    -3.700981,
                    40.54569
                ]
            },
            "properties": {
                "temperatura": 19.94,
                "ph": -1.61,
                "tiempo": "2026-05-05 11:22:02"
            }
        },
        {
            "type": "Feature",
            "geometry": {
                "type": "Point",
                "coordinates": [
                    -3.700978,
                    40.54569
                ]
            },
            "properties": {
                "temperatura": 19.94,
                "ph": 1.12,
                "tiempo": "2026-05-05 11:22:08"
            }
        },
        {
            "type": "Feature",
            "geometry": {
                "type": "Point",
                "coordinates": [
                    -3.700975,
                    40.54569
                ]
            },
            "properties": {
                "temperatura": 20.0,
                "ph": 2.58,
                "tiempo": "2026-05-05 11:22:14"
            }
        },
        {
            "type": "Feature",
            "geometry": {
                "type": "Point",
                "coordinates": [
                    -3.700971,
                    40.54569
                ]
            },
            "properties": {
                "temperatura": 20.0,
                "ph": 3.1,
                "tiempo": "2026-05-05 11:22:20"
            }
        },
        {
            "type": "Feature",
            "geometry": {
                "type": "Point",
                "coordinates": [
                    -3.700959,
                    40.54568
                ]
            },
            "properties": {
                "temperatura": 20.0,
                "ph": -5.41,
                "tiempo": "2026-05-05 11:22:26"
            }
        },
        {
            "type": "Feature",
            "geometry": {
                "type": "Point",
                "coordinates": [
                    -3.700958,
                    40.54568
                ]
            },
            "properties": {
                "temperatura": 20.0,
                "ph": 1.18,
                "tiempo": "2026-05-05 11:22:32"
            }
        },
        {
            "type": "Feature",
            "geometry": {
                "type": "Point",
                "coordinates": [
                    -3.700956,
                    40.54568
                ]
            },
            "properties": {
                "temperatura": 20.0,
                "ph": 2.7,
                "tiempo": "2026-05-05 11:22:38"
            }
        },
        {
            "type": "Feature",
            "geometry": {
                "type": "Point",
                "coordinates": [
                    -3.700964,
                    40.54568
                ]
            },
            "properties": {
                "temperatura": 20.0,
                "ph": 1.91,
                "tiempo": "2026-05-05 11:22:44"
            }
        },
        {
            "type": "Feature",
            "geometry": {
                "type": "Point",
                "coordinates": [
                    -3.700977,
                    40.54568
                ]
            },
            "properties": {
                "temperatura": 20.0,
                "ph": 1.93,
                "tiempo": "2026-05-05 11:22:50"
            }
        },
        {
            "type": "Feature",
            "geometry": {
                "type": "Point",
                "coordinates": [
                    -3.700985,
                    40.54568
                ]
            },
            "properties": {
                "temperatura": 19.94,
                "ph": 0.53,
                "tiempo": "2026-05-05 11:22:56"
            }
        },
        {
            "type": "Feature",
            "geometry": {
                "type": "Point",
                "coordinates": [
                    -3.700989,
                    40.54568
                ]
            },
            "properties": {
                "temperatura": 20.0,
                "ph": 2.7,
                "tiempo": "2026-05-05 11:23:02"
            }
        },
        {
            "type": "Feature",
            "geometry": {
                "type": "Point",
                "coordinates": [
                    -3.700988,
                    40.54568
                ]
            },
            "properties": {
                "temperatura": 20.0,
                "ph": 3.11,
                "tiempo": "2026-05-05 11:23:08"
            }
        },
        {
            "type": "Feature",
            "geometry": {
                "type": "Point",
                "coordinates": [
                    -3.700993,
                    40.54568
                ]
            },
            "properties": {
                "temperatura": 19.94,
                "ph": 2.29,
                "tiempo": "2026-05-05 11:23:14"
            }
        },
        {
            "type": "Feature",
            "geometry": {
                "type": "Point",
                "coordinates": [
                    -3.700995,
                    40.54568
                ]
            },
            "properties": {
                "temperatura": 20.0,
                "ph": -2.1,
                "tiempo": "2026-05-05 11:23:20"
            }
        },
        {
            "type": "Feature",
            "geometry": {
                "type": "Point",
                "coordinates": [
                    -3.700998,
                    40.54568
                ]
            },
            "properties": {
                "temperatura": 20.0,
                "ph": 0.06,
                "tiempo": "2026-05-05 11:23:26"
            }
        },
        {
            "type": "Feature",
            "geometry": {
                "type": "Point",
                "coordinates": [
                    -3.700998,
                    40.54568
                ]
            },
            "properties": {
                "temperatura": 20.06,
                "ph": 2.74,
                "tiempo": "2026-05-05 11:23:33"
            }
        },
        {
            "type": "Feature",
            "geometry": {
                "type": "Point",
                "coordinates": [
                    -3.700996,
                    40.54567
                ]
            },
            "properties": {
                "temperatura": 20.06,
                "ph": 3.21,
                "tiempo": "2026-05-05 11:23:39"
            }
        },
        {
            "type": "Feature",
            "geometry": {
                "type": "Point",
                "coordinates": [
                    -3.700995,
                    40.54567
                ]
            },
            "properties": {
                "temperatura": 20.0,
                "ph": 1.2,
                "tiempo": "2026-05-05 11:23:45"
            }
        },
        {
            "type": "Feature",
            "geometry": {
                "type": "Point",
                "coordinates": [
                    -3.700995,
                    40.54568
                ]
            },
            "properties": {
                "temperatura": 20.06,
                "ph": -4.25,
                "tiempo": "2026-05-05 11:23:51"
            }
        },
        {
            "type": "Feature",
            "geometry": {
                "type": "Point",
                "coordinates": [
                    -3.700995,
                    40.54567
                ]
            },
            "properties": {
                "temperatura": 20.0,
                "ph": 1.3,
                "tiempo": "2026-05-05 11:23:57"
            }
        },
        {
            "type": "Feature",
            "geometry": {
                "type": "Point",
                "coordinates": [
                    -3.701002,
                    40.54567
                ]
            },
            "properties": {
                "temperatura": 20.0,
                "ph": -3.57,
                "tiempo": "2026-05-05 11:24:03"
            }
        },
        {
            "type": "Feature",
            "geometry": {
                "type": "Point",
                "coordinates": [
                    -3.701011,
                    40.54567
                ]
            },
            "properties": {
                "temperatura": 20.0,
                "ph": -2.5,
                "tiempo": "2026-05-05 11:24:09"
            }
        },
        {
            "type": "Feature",
            "geometry": {
                "type": "Point",
                "coordinates": [
                    -3.701022,
                    40.54567
                ]
            },
            "properties": {
                "temperatura": 20.0,
                "ph": -4.22,
                "tiempo": "2026-05-05 11:24:15"
            }
        },
        {
            "type": "Feature",
            "geometry": {
                "type": "Point",
                "coordinates": [
                    -3.701026,
                    40.54567
                ]
            },
            "properties": {
                "temperatura": 20.0,
                "ph": -4.41,
                "tiempo": "2026-05-05 11:24:21"
            }
        },
        {
            "type": "Feature",
            "geometry": {
                "type": "Point",
                "coordinates": [
                    -3.701034,
                    40.54567
                ]
            },
            "properties": {
                "temperatura": 20.0,
                "ph": -2.74,
                "tiempo": "2026-05-05 11:24:27"
            }
        },
        {
            "type": "Feature",
            "geometry": {
                "type": "Point",
                "coordinates": [
                    -3.701041,
                    40.54567
                ]
            },
            "properties": {
                "temperatura": 20.0,
                "ph": -6.07,
                "tiempo": "2026-05-05 11:24:33"
            }
        },
        {
            "type": "Feature",
            "geometry": {
                "type": "Point",
                "coordinates": [
                    -3.701067,
                    40.54566
                ]
            },
            "properties": {
                "temperatura": 20.0,
                "ph": 2.71,
                "tiempo": "2026-05-05 11:24:57"
            }
        },
        {
            "type": "Feature",
            "geometry": {
                "type": "Point",
                "coordinates": [
                    -3.701072,
                    40.54566
                ]
            },
            "properties": {
                "temperatura": 20.06,
                "ph": -2.58,
                "tiempo": "2026-05-05 11:25:03"
            }
        },
        {
            "type": "Feature",
            "geometry": {
                "type": "Point",
                "coordinates": [
                    -3.701085,
                    40.54566
                ]
            },
            "properties": {
                "temperatura": 20.0,
                "ph": -4.06,
                "tiempo": "2026-05-05 11:25:09"
            }
        },
        {
            "type": "Feature",
            "geometry": {
                "type": "Point",
                "coordinates": [
                    -3.701096,
                    40.54566
                ]
            },
            "properties": {
                "temperatura": 20.06,
                "ph": -2.25,
                "tiempo": "2026-05-05 11:25:15"
            }
        },
        {
            "type": "Feature",
            "geometry": {
                "type": "Point",
                "coordinates": [
                    -3.701107,
                    40.54565
                ]
            },
            "properties": {
                "temperatura": 20.06,
                "ph": 0.22,
                "tiempo": "2026-05-05 11:25:21"
            }
        },
        {
            "type": "Feature",
            "geometry": {
                "type": "Point",
                "coordinates": [
                    -3.70111,
                    40.54565
                ]
            },
            "properties": {
                "temperatura": 20.06,
                "ph": -4.88,
                "tiempo": "2026-05-05 11:25:27"
            }
        },
        {
            "type": "Feature",
            "geometry": {
                "type": "Point",
                "coordinates": [
                    -3.701101,
                    40.54564
                ]
            },
            "properties": {
                "temperatura": 20.06,
                "ph": -0.12,
                "tiempo": "2026-05-05 11:25:33"
            }
        },
        {
            "type": "Feature",
            "geometry": {
                "type": "Point",
                "coordinates": [
                    -3.701109,
                    40.54563
                ]
            },
            "properties": {
                "temperatura": 20.0,
                "ph": -5.8,
                "tiempo": "2026-05-05 11:25:39"
            }
        },
        {
            "type": "Feature",
            "geometry": {
                "type": "Point",
                "coordinates": [
                    -3.701126,
                    40.54562
                ]
            },
            "properties": {
                "temperatura": 20.0,
                "ph": -4.42,
                "tiempo": "2026-05-05 11:25:45"
            }
        },
        {
            "type": "Feature",
            "geometry": {
                "type": "Point",
                "coordinates": [
                    -3.701125,
                    40.54562
                ]
            },
            "properties": {
                "temperatura": 20.0,
                "ph": -4.16,
                "tiempo": "2026-05-05 11:25:51"
            }
        },
        {
            "type": "Feature",
            "geometry": {
                "type": "Point",
                "coordinates": [
                    -3.701117,
                    40.54562
                ]
            },
            "properties": {
                "temperatura": 20.0,
                "ph": -3.78,
                "tiempo": "2026-05-05 11:25:58"
            }
        },
        {
            "type": "Feature",
            "geometry": {
                "type": "Point",
                "coordinates": [
                    -3.701097,
                    40.54562
                ]
            },
            "properties": {
                "temperatura": 20.0,
                "ph": -4.73,
                "tiempo": "2026-05-05 11:26:04"
            }
        },
        {
            "type": "Feature",
            "geometry": {
                "type": "Point",
                "coordinates": [
                    -3.701081,
                    40.54563
                ]
            },
            "properties": {
                "temperatura": 19.94,
                "ph": -3.36,
                "tiempo": "2026-05-05 11:26:09"
            }
        },
        {
            "type": "Feature",
            "geometry": {
                "type": "Point",
                "coordinates": [
                    -3.701068,
                    40.54564
                ]
            },
            "properties": {
                "temperatura": 19.94,
                "ph": 2.79,
                "tiempo": "2026-05-05 11:26:28"
            }
        },
        {
            "type": "Feature",
            "geometry": {
                "type": "Point",
                "coordinates": [
                    -3.70107,
                    40.54564
                ]
            },
            "properties": {
                "temperatura": 20.0,
                "ph": -4.12,
                "tiempo": "2026-05-05 11:26:34"
            }
        },
        {
            "type": "Feature",
            "geometry": {
                "type": "Point",
                "coordinates": [
                    -3.701061,
                    40.54564
                ]
            },
            "properties": {
                "temperatura": 20.0,
                "ph": -4.74,
                "tiempo": "2026-05-05 11:26:41"
            }
        },
        {
            "type": "Feature",
            "geometry": {
                "type": "Point",
                "coordinates": [
                    -3.701052,
                    40.54563
                ]
            },
            "properties": {
                "temperatura": 20.0,
                "ph": -5.07,
                "tiempo": "2026-05-05 11:26:47"
            }
        },
        {
            "type": "Feature",
            "geometry": {
                "type": "Point",
                "coordinates": [
                    -3.701036,
                    40.54563
                ]
            },
            "properties": {
                "temperatura": 20.0,
                "ph": -6.07,
                "tiempo": "2026-05-05 11:26:53"
            }
        },
        {
            "type": "Feature",
            "geometry": {
                "type": "Point",
                "coordinates": [
                    -3.701016,
                    40.54564
                ]
            },
            "properties": {
                "temperatura": 19.94,
                "ph": -2.75,
                "tiempo": "2026-05-05 11:26:59"
            }
        },
        {
            "type": "Feature",
            "geometry": {
                "type": "Point",
                "coordinates": [
                    -3.701005,
                    40.54565
                ]
            },
            "properties": {
                "temperatura": 20.0,
                "ph": -3.66,
                "tiempo": "2026-05-05 11:27:06"
            }
        },
        {
            "type": "Feature",
            "geometry": {
                "type": "Point",
                "coordinates": [
                    -3.700991,
                    40.54565
                ]
            },
            "properties": {
                "temperatura": 20.0,
                "ph": -3.37,
                "tiempo": "2026-05-05 11:27:12"
            }
        },
        {
            "type": "Feature",
            "geometry": {
                "type": "Point",
                "coordinates": [
                    -3.700979,
                    40.54564
                ]
            },
            "properties": {
                "temperatura": 20.0,
                "ph": -5.65,
                "tiempo": "2026-05-05 11:27:18"
            }
        },
        {
            "type": "Feature",
            "geometry": {
                "type": "Point",
                "coordinates": [
                    -3.700987,
                    40.54564
                ]
            },
            "properties": {
                "temperatura": 20.0,
                "ph": 0.86,
                "tiempo": "2026-05-05 11:27:23"
            }
        },
        {
            "type": "Feature",
            "geometry": {
                "type": "Point",
                "coordinates": [
                    -3.701005,
                    40.54564
                ]
            },
            "properties": {
                "temperatura": 20.0,
                "ph": -3.57,
                "tiempo": "2026-05-05 11:27:30"
            }
        },
        {
            "type": "Feature",
            "geometry": {
                "type": "Point",
                "coordinates": [
                    -3.701007,
                    40.54565
                ]
            },
            "properties": {
                "temperatura": 20.0,
                "ph": -3.79,
                "tiempo": "2026-05-05 11:27:36"
            }
        },
        {
            "type": "Feature",
            "geometry": {
                "type": "Point",
                "coordinates": [
                    -3.701014,
                    40.54565
                ]
            },
            "properties": {
                "temperatura": 20.0,
                "ph": -4.25,
                "tiempo": "2026-05-05 11:27:41"
            }
        },
        {
            "type": "Feature",
            "geometry": {
                "type": "Point",
                "coordinates": [
                    -3.701029,
                    40.54564
                ]
            },
            "properties": {
                "temperatura": 20.0,
                "ph": -4.07,
                "tiempo": "2026-05-05 11:27:48"
            }
        },
        {
            "type": "Feature",
            "geometry": {
                "type": "Point",
                "coordinates": [
                    -3.701038,
                    40.54564
                ]
            },
            "properties": {
                "temperatura": 20.0,
                "ph": -2.36,
                "tiempo": "2026-05-05 11:27:54"
            }
        },
        {
            "type": "Feature",
            "geometry": {
                "type": "Point",
                "coordinates": [
                    -3.701051,
                    40.54564
                ]
            },
            "properties": {
                "temperatura": 20.0,
                "ph": -3.72,
                "tiempo": "2026-05-05 11:28:00"
            }
        },
        {
            "type": "Feature",
            "geometry": {
                "type": "Point",
                "coordinates": [
                    -3.701079,
                    40.54564
                ]
            },
            "properties": {
                "temperatura": 20.0,
                "ph": 2.78,
                "tiempo": "2026-05-05 11:28:24"
            }
        },
        {
            "type": "Feature",
            "geometry": {
                "type": "Point",
                "coordinates": [
                    -3.701081,
                    40.54564
                ]
            },
            "properties": {
                "temperatura": 20.0,
                "ph": 3.08,
                "tiempo": "2026-05-05 11:28:30"
            }
        },
        {
            "type": "Feature",
            "geometry": {
                "type": "Point",
                "coordinates": [
                    -3.701081,
                    40.54564
                ]
            },
            "properties": {
                "temperatura": 20.0,
                "ph": 3.27,
                "tiempo": "2026-05-05 11:28:36"
            }
        },
        {
            "type": "Feature",
            "geometry": {
                "type": "Point",
                "coordinates": [
                    -3.701082,
                    40.54564
                ]
            },
            "properties": {
                "temperatura": 20.0,
                "ph": 3.33,
                "tiempo": "2026-05-05 11:28:42"
            }
        },
        {
            "type": "Feature",
            "geometry": {
                "type": "Point",
                "coordinates": [
                    -3.701083,
                    40.54564
                ]
            },
            "properties": {
                "temperatura": 20.0,
                "ph": 3.43,
                "tiempo": "2026-05-05 11:28:48"
            }
        },
        {
            "type": "Feature",
            "geometry": {
                "type": "Point",
                "coordinates": [
                    -3.701083,
                    40.54564
                ]
            },
            "properties": {
                "temperatura": 20.06,
                "ph": 2.4,
                "tiempo": "2026-05-05 11:28:54"
            }
        },
        {
            "type": "Feature",
            "geometry": {
                "type": "Point",
                "coordinates": [
                    -3.701092,
                    40.54565
                ]
            },
            "properties": {
                "temperatura": 20.06,
                "ph": 0.99,
                "tiempo": "2026-05-05 11:29:00"
            }
        },
        {
            "type": "Feature",
            "geometry": {
                "type": "Point",
                "coordinates": [
                    -3.701097,
                    40.54565
                ]
            },
            "properties": {
                "temperatura": 20.06,
                "ph": 1.46,
                "tiempo": "2026-05-05 11:29:06"
            }
        },
        {
            "type": "Feature",
            "geometry": {
                "type": "Point",
                "coordinates": [
                    -3.7011,
                    40.54565
                ]
            },
            "properties": {
                "temperatura": 20.06,
                "ph": 2.58,
                "tiempo": "2026-05-05 11:29:12"
            }
        }
    ]
}