{
    "type": "FeatureCollection",
    "features": [
        {
            "type": "Feature",
            "geometry": {
                "type": "Point",
                "coordinates": [
                    -3.692217,
                    40.54608
                ]
            },
            "properties": {
                "temperatura": 29.12,
                "ph": 6.72,
                "tiempo": "2026-04-23 13:28:42"
            }
        },
        {
            "type": "Feature",
            "geometry": {
                "type": "Point",
                "coordinates": [
                    -3.69222,
                    40.54608
                ]
            },
            "properties": {
                "temperatura": 29.12,
                "ph": 6.75,
                "tiempo": "2026-04-23 13:28:48"
            }
        },
        {
            "type": "Feature",
            "geometry": {
                "type": "Point",
                "coordinates": [
                    -3.692222,
                    40.54608
                ]
            },
            "properties": {
                "temperatura": 29.06,
                "ph": 6.75,
                "tiempo": "2026-04-23 13:28:54"
            }
        },
        {
            "type": "Feature",
            "geometry": {
                "type": "Point",
                "coordinates": [
                    -3.692219,
                    40.54607
                ]
            },
            "properties": {
                "temperatura": 29.12,
                "ph": 6.77,
                "tiempo": "2026-04-23 13:29:00"
            }
        },
        {
            "type": "Feature",
            "geometry": {
                "type": "Point",
                "coordinates": [
                    -3.692192,
                    40.54602
                ]
            },
            "properties": {
                "temperatura": 29.19,
                "ph": 9.02,
                "tiempo": "2026-04-23 13:29:06"
            }
        },
        {
            "type": "Feature",
            "geometry": {
                "type": "Point",
                "coordinates": [
                    -3.692188,
                    40.54602
                ]
            },
            "properties": {
                "temperatura": 29.0,
                "ph": 18.28,
                "tiempo": "2026-04-23 13:29:12"
            }
        },
        {
            "type": "Feature",
            "geometry": {
                "type": "Point",
                "coordinates": [
                    -3.692177,
                    40.54601
                ]
            },
            "properties": {
                "temperatura": 28.81,
                "ph": 18.28,
                "tiempo": "2026-04-23 13:29:18"
            }
        },
        {
            "type": "Feature",
            "geometry": {
                "type": "Point",
                "coordinates": [
                    -3.692147,
                    40.54596
                ]
            },
            "properties": {
                "temperatura": 28.56,
                "ph": 13.78,
                "tiempo": "2026-04-23 13:29:24"
            }
        },
        {
            "type": "Feature",
            "geometry": {
                "type": "Point",
                "coordinates": [
                    -3.692138,
                    40.54595
                ]
            },
            "properties": {
                "temperatura": 28.31,
                "ph": 11.72,
                "tiempo": "2026-04-23 13:29:30"
            }
        },
        {
            "type": "Feature",
            "geometry": {
                "type": "Point",
                "coordinates": [
                    -3.692125,
                    40.54593
                ]
            },
            "properties": {
                "temperatura": 28.38,
                "ph": 18.28,
                "tiempo": "2026-04-23 13:29:36"
            }
        },
        {
            "type": "Feature",
            "geometry": {
                "type": "Point",
                "coordinates": [
                    -3.692099,
                    40.54588
                ]
            },
            "properties": {
                "temperatura": 28.5,
                "ph": 8.41,
                "tiempo": "2026-04-23 13:29:42"
            }
        },
        {
            "type": "Feature",
            "geometry": {
                "type": "Point",
                "coordinates": [
                    -3.69207,
                    40.54583
                ]
            },
            "properties": {
                "temperatura": 28.62,
                "ph": 16.8,
                "tiempo": "2026-04-23 13:29:48"
            }
        },
        {
            "type": "Feature",
            "geometry": {
                "type": "Point",
                "coordinates": [
                    -3.692035,
                    40.54578
                ]
            },
            "properties": {
                "temperatura": 28.75,
                "ph": 10.45,
                "tiempo": "2026-04-23 13:29:54"
            }
        },
        {
            "type": "Feature",
            "geometry": {
                "type": "Point",
                "coordinates": [
                    -3.691995,
                    40.54571
                ]
            },
            "properties": {
                "temperatura": 28.81,
                "ph": 7.81,
                "tiempo": "2026-04-23 13:30:00"
            }
        },
        {
            "type": "Feature",
            "geometry": {
                "type": "Point",
                "coordinates": [
                    -3.691969,
                    40.54567
                ]
            },
            "properties": {
                "temperatura": 28.87,
                "ph": 10.64,
                "tiempo": "2026-04-23 13:30:06"
            }
        },
        {
            "type": "Feature",
            "geometry": {
                "type": "Point",
                "coordinates": [
                    -3.691936,
                    40.54561
                ]
            },
            "properties": {
                "temperatura": 28.87,
                "ph": 8.19,
                "tiempo": "2026-04-23 13:30:12"
            }
        },
        {
            "type": "Feature",
            "geometry": {
                "type": "Point",
                "coordinates": [
                    -3.691901,
                    40.54555
                ]
            },
            "properties": {
                "temperatura": 28.87,
                "ph": 10.71,
                "tiempo": "2026-04-23 13:30:18"
            }
        },
        {
            "type": "Feature",
            "geometry": {
                "type": "Point",
                "coordinates": [
                    -3.691872,
                    40.54549
                ]
            },
            "properties": {
                "temperatura": 28.81,
                "ph": 13.62,
                "tiempo": "2026-04-23 13:30:24"
            }
        },
        {
            "type": "Feature",
            "geometry": {
                "type": "Point",
                "coordinates": [
                    -3.691834,
                    40.54548
                ]
            },
            "properties": {
                "temperatura": 28.81,
                "ph": 7.38,
                "tiempo": "2026-04-23 13:30:30"
            }
        },
        {
            "type": "Feature",
            "geometry": {
                "type": "Point",
                "coordinates": [
                    -3.691774,
                    40.5455
                ]
            },
            "properties": {
                "temperatura": 28.81,
                "ph": 7.58,
                "tiempo": "2026-04-23 13:30:37"
            }
        },
        {
            "type": "Feature",
            "geometry": {
                "type": "Point",
                "coordinates": [
                    -3.691781,
                    40.54551
                ]
            },
            "properties": {
                "temperatura": 28.69,
                "ph": 12.12,
                "tiempo": "2026-04-23 13:30:43"
            }
        },
        {
            "type": "Feature",
            "geometry": {
                "type": "Point",
                "coordinates": [
                    -3.691798,
                    40.54555
                ]
            },
            "properties": {
                "temperatura": 28.69,
                "ph": 7.83,
                "tiempo": "2026-04-23 13:30:49"
            }
        },
        {
            "type": "Feature",
            "geometry": {
                "type": "Point",
                "coordinates": [
                    -3.69182,
                    40.54559
                ]
            },
            "properties": {
                "temperatura": 28.69,
                "ph": 8.14,
                "tiempo": "2026-04-23 13:30:55"
            }
        },
        {
            "type": "Feature",
            "geometry": {
                "type": "Point",
                "coordinates": [
                    -3.691835,
                    40.54564
                ]
            },
            "properties": {
                "temperatura": 28.62,
                "ph": 16.78,
                "tiempo": "2026-04-23 13:31:01"
            }
        },
        {
            "type": "Feature",
            "geometry": {
                "type": "Point",
                "coordinates": [
                    -3.69186,
                    40.54569
                ]
            },
            "properties": {
                "temperatura": 28.56,
                "ph": 14.88,
                "tiempo": "2026-04-23 13:31:07"
            }
        },
        {
            "type": "Feature",
            "geometry": {
                "type": "Point",
                "coordinates": [
                    -3.691888,
                    40.54574
                ]
            },
            "properties": {
                "temperatura": 28.38,
                "ph": 8.87,
                "tiempo": "2026-04-23 13:31:13"
            }
        },
        {
            "type": "Feature",
            "geometry": {
                "type": "Point",
                "coordinates": [
                    -3.691909,
                    40.54578
                ]
            },
            "properties": {
                "temperatura": 28.25,
                "ph": 8.47,
                "tiempo": "2026-04-23 13:31:19"
            }
        },
        {
            "type": "Feature",
            "geometry": {
                "type": "Point",
                "coordinates": [
                    -3.691941,
                    40.54584
                ]
            },
            "properties": {
                "temperatura": 28.19,
                "ph": 8.44,
                "tiempo": "2026-04-23 13:31:26"
            }
        },
        {
            "type": "Feature",
            "geometry": {
                "type": "Point",
                "coordinates": [
                    -3.691961,
                    40.54588
                ]
            },
            "properties": {
                "temperatura": 28.19,
                "ph": 16.06,
                "tiempo": "2026-04-23 13:31:32"
            }
        },
        {
            "type": "Feature",
            "geometry": {
                "type": "Point",
                "coordinates": [
                    -3.691988,
                    40.54593
                ]
            },
            "properties": {
                "temperatura": 28.25,
                "ph": 11.0,
                "tiempo": "2026-04-23 13:31:38"
            }
        },
        {
            "type": "Feature",
            "geometry": {
                "type": "Point",
                "coordinates": [
                    -3.692015,
                    40.54598
                ]
            },
            "properties": {
                "temperatura": 28.44,
                "ph": 8.27,
                "tiempo": "2026-04-23 13:31:44"
            }
        },
        {
            "type": "Feature",
            "geometry": {
                "type": "Point",
                "coordinates": [
                    -3.69204,
                    40.54603
                ]
            },
            "properties": {
                "temperatura": 28.5,
                "ph": 16.04,
                "tiempo": "2026-04-23 13:31:50"
            }
        },
        {
            "type": "Feature",
            "geometry": {
                "type": "Point",
                "coordinates": [
                    -3.692061,
                    40.54608
                ]
            },
            "properties": {
                "temperatura": 28.56,
                "ph": 7.98,
                "tiempo": "2026-04-23 13:31:56"
            }
        },
        {
            "type": "Feature",
            "geometry": {
                "type": "Point",
                "coordinates": [
                    -3.692086,
                    40.54612
                ]
            },
            "properties": {
                "temperatura": 28.62,
                "ph": 7.27,
                "tiempo": "2026-04-23 13:32:02"
            }
        },
        {
            "type": "Feature",
            "geometry": {
                "type": "Point",
                "coordinates": [
                    -3.692069,
                    40.54614
                ]
            },
            "properties": {
                "temperatura": 28.75,
                "ph": 7.11,
                "tiempo": "2026-04-23 13:32:08"
            }
        },
        {
            "type": "Feature",
            "geometry": {
                "type": "Point",
                "coordinates": [
                    -3.692024,
                    40.54614
                ]
            },
            "properties": {
                "temperatura": 28.81,
                "ph": 6.99,
                "tiempo": "2026-04-23 13:32:14"
            }
        },
        {
            "type": "Feature",
            "geometry": {
                "type": "Point",
                "coordinates": [
                    -3.692003,
                    40.54613
                ]
            },
            "properties": {
                "temperatura": 28.75,
                "ph": 6.96,
                "tiempo": "2026-04-23 13:32:20"
            }
        },
        {
            "type": "Feature",
            "geometry": {
                "type": "Point",
                "coordinates": [
                    -3.691965,
                    40.54607
                ]
            },
            "properties": {
                "temperatura": 28.56,
                "ph": 6.9,
                "tiempo": "2026-04-23 13:32:27"
            }
        },
        {
            "type": "Feature",
            "geometry": {
                "type": "Point",
                "coordinates": [
                    -3.69193,
                    40.54603
                ]
            },
            "properties": {
                "temperatura": 28.44,
                "ph": 6.88,
                "tiempo": "2026-04-23 13:32:33"
            }
        },
        {
            "type": "Feature",
            "geometry": {
                "type": "Point",
                "coordinates": [
                    -3.6919,
                    40.54599
                ]
            },
            "properties": {
                "temperatura": 28.44,
                "ph": 6.86,
                "tiempo": "2026-04-23 13:32:39"
            }
        },
        {
            "type": "Feature",
            "geometry": {
                "type": "Point",
                "coordinates": [
                    -3.69187,
                    40.54594
                ]
            },
            "properties": {
                "temperatura": 28.38,
                "ph": 6.86,
                "tiempo": "2026-04-23 13:32:45"
            }
        },
        {
            "type": "Feature",
            "geometry": {
                "type": "Point",
                "coordinates": [
                    -3.691838,
                    40.54589
                ]
            },
            "properties": {
                "temperatura": 28.31,
                "ph": 6.84,
                "tiempo": "2026-04-23 13:32:51"
            }
        },
        {
            "type": "Feature",
            "geometry": {
                "type": "Point",
                "coordinates": [
                    -3.691806,
                    40.54585
                ]
            },
            "properties": {
                "temperatura": 28.19,
                "ph": 6.82,
                "tiempo": "2026-04-23 13:32:57"
            }
        },
        {
            "type": "Feature",
            "geometry": {
                "type": "Point",
                "coordinates": [
                    -3.691781,
                    40.54581
                ]
            },
            "properties": {
                "temperatura": 28.19,
                "ph": 6.83,
                "tiempo": "2026-04-23 13:33:03"
            }
        },
        {
            "type": "Feature",
            "geometry": {
                "type": "Point",
                "coordinates": [
                    -3.691741,
                    40.54574
                ]
            },
            "properties": {
                "temperatura": 28.31,
                "ph": 6.81,
                "tiempo": "2026-04-23 13:33:10"
            }
        },
        {
            "type": "Feature",
            "geometry": {
                "type": "Point",
                "coordinates": [
                    -3.691715,
                    40.5457
                ]
            },
            "properties": {
                "temperatura": 28.44,
                "ph": 6.8,
                "tiempo": "2026-04-23 13:33:16"
            }
        },
        {
            "type": "Feature",
            "geometry": {
                "type": "Point",
                "coordinates": [
                    -3.691684,
                    40.54566
                ]
            },
            "properties": {
                "temperatura": 28.56,
                "ph": 6.79,
                "tiempo": "2026-04-23 13:33:22"
            }
        },
        {
            "type": "Feature",
            "geometry": {
                "type": "Point",
                "coordinates": [
                    -3.691656,
                    40.54561
                ]
            },
            "properties": {
                "temperatura": 28.62,
                "ph": 6.81,
                "tiempo": "2026-04-23 13:33:28"
            }
        },
        {
            "type": "Feature",
            "geometry": {
                "type": "Point",
                "coordinates": [
                    -3.691625,
                    40.54557
                ]
            },
            "properties": {
                "temperatura": 28.69,
                "ph": 6.89,
                "tiempo": "2026-04-23 13:33:34"
            }
        },
        {
            "type": "Feature",
            "geometry": {
                "type": "Point",
                "coordinates": [
                    -3.691594,
                    40.54553
                ]
            },
            "properties": {
                "temperatura": 28.81,
                "ph": 6.87,
                "tiempo": "2026-04-23 13:33:40"
            }
        },
        {
            "type": "Feature",
            "geometry": {
                "type": "Point",
                "coordinates": [
                    -3.691584,
                    40.54552
                ]
            },
            "properties": {
                "temperatura": 28.94,
                "ph": 6.89,
                "tiempo": "2026-04-23 13:33:46"
            }
        },
        {
            "type": "Feature",
            "geometry": {
                "type": "Point",
                "coordinates": [
                    -3.691533,
                    40.54554
                ]
            },
            "properties": {
                "temperatura": 29.0,
                "ph": 6.89,
                "tiempo": "2026-04-23 13:33:52"
            }
        },
        {
            "type": "Feature",
            "geometry": {
                "type": "Point",
                "coordinates": [
                    -3.691517,
                    40.54556
                ]
            },
            "properties": {
                "temperatura": 28.94,
                "ph": 6.9,
                "tiempo": "2026-04-23 13:33:58"
            }
        },
        {
            "type": "Feature",
            "geometry": {
                "type": "Point",
                "coordinates": [
                    -3.691539,
                    40.5456
                ]
            },
            "properties": {
                "temperatura": 28.87,
                "ph": 6.91,
                "tiempo": "2026-04-23 13:34:04"
            }
        },
        {
            "type": "Feature",
            "geometry": {
                "type": "Point",
                "coordinates": [
                    -3.691562,
                    40.54564
                ]
            },
            "properties": {
                "temperatura": 28.81,
                "ph": 6.89,
                "tiempo": "2026-04-23 13:34:10"
            }
        },
        {
            "type": "Feature",
            "geometry": {
                "type": "Point",
                "coordinates": [
                    -3.691588,
                    40.54569
                ]
            },
            "properties": {
                "temperatura": 28.75,
                "ph": 6.89,
                "tiempo": "2026-04-23 13:34:16"
            }
        },
        {
            "type": "Feature",
            "geometry": {
                "type": "Point",
                "coordinates": [
                    -3.691613,
                    40.54575
                ]
            },
            "properties": {
                "temperatura": 28.62,
                "ph": 6.89,
                "tiempo": "2026-04-23 13:34:22"
            }
        },
        {
            "type": "Feature",
            "geometry": {
                "type": "Point",
                "coordinates": [
                    -3.691632,
                    40.5458
                ]
            },
            "properties": {
                "temperatura": 28.5,
                "ph": 6.89,
                "tiempo": "2026-04-23 13:34:28"
            }
        },
        {
            "type": "Feature",
            "geometry": {
                "type": "Point",
                "coordinates": [
                    -3.691663,
                    40.54585
                ]
            },
            "properties": {
                "temperatura": 28.38,
                "ph": 6.86,
                "tiempo": "2026-04-23 13:34:34"
            }
        },
        {
            "type": "Feature",
            "geometry": {
                "type": "Point",
                "coordinates": [
                    -3.69168,
                    40.54589
                ]
            },
            "properties": {
                "temperatura": 28.31,
                "ph": 6.84,
                "tiempo": "2026-04-23 13:34:40"
            }
        },
        {
            "type": "Feature",
            "geometry": {
                "type": "Point",
                "coordinates": [
                    -3.691709,
                    40.54596
                ]
            },
            "properties": {
                "temperatura": 28.38,
                "ph": 6.86,
                "tiempo": "2026-04-23 13:34:46"
            }
        },
        {
            "type": "Feature",
            "geometry": {
                "type": "Point",
                "coordinates": [
                    -3.691732,
                    40.546
                ]
            },
            "properties": {
                "temperatura": 28.44,
                "ph": 6.85,
                "tiempo": "2026-04-23 13:34:51"
            }
        },
        {
            "type": "Feature",
            "geometry": {
                "type": "Point",
                "coordinates": [
                    -3.691751,
                    40.54604
                ]
            },
            "properties": {
                "temperatura": 28.38,
                "ph": 6.84,
                "tiempo": "2026-04-23 13:34:57"
            }
        },
        {
            "type": "Feature",
            "geometry": {
                "type": "Point",
                "coordinates": [
                    -3.691774,
                    40.54609
                ]
            },
            "properties": {
                "temperatura": 28.25,
                "ph": 6.81,
                "tiempo": "2026-04-23 13:35:03"
            }
        },
        {
            "type": "Feature",
            "geometry": {
                "type": "Point",
                "coordinates": [
                    -3.691803,
                    40.54615
                ]
            },
            "properties": {
                "temperatura": 28.19,
                "ph": 6.83,
                "tiempo": "2026-04-23 13:35:09"
            }
        },
        {
            "type": "Feature",
            "geometry": {
                "type": "Point",
                "coordinates": [
                    -3.691821,
                    40.54619
                ]
            },
            "properties": {
                "temperatura": 28.19,
                "ph": 6.82,
                "tiempo": "2026-04-23 13:35:15"
            }
        },
        {
            "type": "Feature",
            "geometry": {
                "type": "Point",
                "coordinates": [
                    -3.691836,
                    40.54622
                ]
            },
            "properties": {
                "temperatura": 28.19,
                "ph": 6.81,
                "tiempo": "2026-04-23 13:35:21"
            }
        },
        {
            "type": "Feature",
            "geometry": {
                "type": "Point",
                "coordinates": [
                    -3.691833,
                    40.54622
                ]
            },
            "properties": {
                "temperatura": 28.12,
                "ph": 6.81,
                "tiempo": "2026-04-23 13:35:27"
            }
        },
        {
            "type": "Feature",
            "geometry": {
                "type": "Point",
                "coordinates": [
                    -3.691809,
                    40.54623
                ]
            },
            "properties": {
                "temperatura": 27.94,
                "ph": 6.81,
                "tiempo": "2026-04-23 13:35:33"
            }
        },
        {
            "type": "Feature",
            "geometry": {
                "type": "Point",
                "coordinates": [
                    -3.691778,
                    40.54624
                ]
            },
            "properties": {
                "temperatura": 27.69,
                "ph": 6.81,
                "tiempo": "2026-04-23 13:35:39"
            }
        },
        {
            "type": "Feature",
            "geometry": {
                "type": "Point",
                "coordinates": [
                    -3.69177,
                    40.54623
                ]
            },
            "properties": {
                "temperatura": 27.5,
                "ph": 6.83,
                "tiempo": "2026-04-23 13:35:45"
            }
        },
        {
            "type": "Feature",
            "geometry": {
                "type": "Point",
                "coordinates": [
                    -3.691749,
                    40.54619
                ]
            },
            "properties": {
                "temperatura": 27.44,
                "ph": 6.82,
                "tiempo": "2026-04-23 13:35:51"
            }
        },
        {
            "type": "Feature",
            "geometry": {
                "type": "Point",
                "coordinates": [
                    -3.691716,
                    40.54614
                ]
            },
            "properties": {
                "temperatura": 27.37,
                "ph": 6.78,
                "tiempo": "2026-04-23 13:35:57"
            }
        },
        {
            "type": "Feature",
            "geometry": {
                "type": "Point",
                "coordinates": [
                    -3.691681,
                    40.54608
                ]
            },
            "properties": {
                "temperatura": 27.44,
                "ph": 6.78,
                "tiempo": "2026-04-23 13:36:03"
            }
        },
        {
            "type": "Feature",
            "geometry": {
                "type": "Point",
                "coordinates": [
                    -3.691659,
                    40.54603
                ]
            },
            "properties": {
                "temperatura": 27.5,
                "ph": 6.78,
                "tiempo": "2026-04-23 13:36:09"
            }
        },
        {
            "type": "Feature",
            "geometry": {
                "type": "Point",
                "coordinates": [
                    -3.691623,
                    40.54598
                ]
            },
            "properties": {
                "temperatura": 27.62,
                "ph": 6.77,
                "tiempo": "2026-04-23 13:36:15"
            }
        },
        {
            "type": "Feature",
            "geometry": {
                "type": "Point",
                "coordinates": [
                    -3.69158,
                    40.54592
                ]
            },
            "properties": {
                "temperatura": 27.69,
                "ph": 6.78,
                "tiempo": "2026-04-23 13:36:21"
            }
        },
        {
            "type": "Feature",
            "geometry": {
                "type": "Point",
                "coordinates": [
                    -3.691553,
                    40.54589
                ]
            },
            "properties": {
                "temperatura": 27.81,
                "ph": 6.77,
                "tiempo": "2026-04-23 13:36:27"
            }
        },
        {
            "type": "Feature",
            "geometry": {
                "type": "Point",
                "coordinates": [
                    -3.691526,
                    40.54584
                ]
            },
            "properties": {
                "temperatura": 27.87,
                "ph": 6.76,
                "tiempo": "2026-04-23 13:36:33"
            }
        },
        {
            "type": "Feature",
            "geometry": {
                "type": "Point",
                "coordinates": [
                    -3.691491,
                    40.54578
                ]
            },
            "properties": {
                "temperatura": 27.94,
                "ph": 6.75,
                "tiempo": "2026-04-23 13:36:39"
            }
        },
        {
            "type": "Feature",
            "geometry": {
                "type": "Point",
                "coordinates": [
                    -3.691463,
                    40.54575
                ]
            },
            "properties": {
                "temperatura": 28.06,
                "ph": 6.74,
                "tiempo": "2026-04-23 13:36:45"
            }
        },
        {
            "type": "Feature",
            "geometry": {
                "type": "Point",
                "coordinates": [
                    -3.691426,
                    40.54569
                ]
            },
            "properties": {
                "temperatura": 28.25,
                "ph": 6.76,
                "tiempo": "2026-04-23 13:36:51"
            }
        },
        {
            "type": "Feature",
            "geometry": {
                "type": "Point",
                "coordinates": [
                    -3.691397,
                    40.54565
                ]
            },
            "properties": {
                "temperatura": 28.31,
                "ph": 6.75,
                "tiempo": "2026-04-23 13:36:56"
            }
        },
        {
            "type": "Feature",
            "geometry": {
                "type": "Point",
                "coordinates": [
                    -3.691361,
                    40.54559
                ]
            },
            "properties": {
                "temperatura": 28.56,
                "ph": 6.77,
                "tiempo": "2026-04-23 13:37:03"
            }
        },
        {
            "type": "Feature",
            "geometry": {
                "type": "Point",
                "coordinates": [
                    -3.691361,
                    40.54559
                ]
            },
            "properties": {
                "temperatura": 28.81,
                "ph": 6.76,
                "tiempo": "2026-04-23 13:37:08"
            }
        },
        {
            "type": "Feature",
            "geometry": {
                "type": "Point",
                "coordinates": [
                    -3.691311,
                    40.54563
                ]
            },
            "properties": {
                "temperatura": 28.94,
                "ph": 6.78,
                "tiempo": "2026-04-23 13:37:15"
            }
        },
        {
            "type": "Feature",
            "geometry": {
                "type": "Point",
                "coordinates": [
                    -3.691319,
                    40.54565
                ]
            },
            "properties": {
                "temperatura": 29.06,
                "ph": 6.77,
                "tiempo": "2026-04-23 13:37:21"
            }
        },
        {
            "type": "Feature",
            "geometry": {
                "type": "Point",
                "coordinates": [
                    -3.691346,
                    40.54571
                ]
            },
            "properties": {
                "temperatura": 29.12,
                "ph": 6.77,
                "tiempo": "2026-04-23 13:37:27"
            }
        },
        {
            "type": "Feature",
            "geometry": {
                "type": "Point",
                "coordinates": [
                    -3.691375,
                    40.54578
                ]
            },
            "properties": {
                "temperatura": 29.19,
                "ph": 6.77,
                "tiempo": "2026-04-23 13:37:33"
            }
        },
        {
            "type": "Feature",
            "geometry": {
                "type": "Point",
                "coordinates": [
                    -3.691393,
                    40.54582
                ]
            },
            "properties": {
                "temperatura": 29.19,
                "ph": 6.78,
                "tiempo": "2026-04-23 13:37:38"
            }
        },
        {
            "type": "Feature",
            "geometry": {
                "type": "Point",
                "coordinates": [
                    -3.691411,
                    40.54587
                ]
            },
            "properties": {
                "temperatura": 29.19,
                "ph": 6.81,
                "tiempo": "2026-04-23 13:37:44"
            }
        },
        {
            "type": "Feature",
            "geometry": {
                "type": "Point",
                "coordinates": [
                    -3.691428,
                    40.54591
                ]
            },
            "properties": {
                "temperatura": 29.19,
                "ph": 6.78,
                "tiempo": "2026-04-23 13:37:50"
            }
        },
        {
            "type": "Feature",
            "geometry": {
                "type": "Point",
                "coordinates": [
                    -3.691447,
                    40.54596
                ]
            },
            "properties": {
                "temperatura": 29.19,
                "ph": 6.77,
                "tiempo": "2026-04-23 13:37:56"
            }
        },
        {
            "type": "Feature",
            "geometry": {
                "type": "Point",
                "coordinates": [
                    -3.691461,
                    40.546
                ]
            },
            "properties": {
                "temperatura": 29.19,
                "ph": 6.86,
                "tiempo": "2026-04-23 13:38:02"
            }
        },
        {
            "type": "Feature",
            "geometry": {
                "type": "Point",
                "coordinates": [
                    -3.691471,
                    40.54605
                ]
            },
            "properties": {
                "temperatura": 29.25,
                "ph": 6.92,
                "tiempo": "2026-04-23 13:38:07"
            }
        },
        {
            "type": "Feature",
            "geometry": {
                "type": "Point",
                "coordinates": [
                    -3.691489,
                    40.54612
                ]
            },
            "properties": {
                "temperatura": 29.31,
                "ph": 6.92,
                "tiempo": "2026-04-23 13:38:13"
            }
        },
        {
            "type": "Feature",
            "geometry": {
                "type": "Point",
                "coordinates": [
                    -3.691508,
                    40.54617
                ]
            },
            "properties": {
                "temperatura": 29.37,
                "ph": 6.88,
                "tiempo": "2026-04-23 13:38:19"
            }
        },
        {
            "type": "Feature",
            "geometry": {
                "type": "Point",
                "coordinates": [
                    -3.691517,
                    40.54619
                ]
            },
            "properties": {
                "temperatura": 29.56,
                "ph": 6.88,
                "tiempo": "2026-04-23 13:38:24"
            }
        },
        {
            "type": "Feature",
            "geometry": {
                "type": "Point",
                "coordinates": [
                    -3.691527,
                    40.54622
                ]
            },
            "properties": {
                "temperatura": 29.69,
                "ph": 6.85,
                "tiempo": "2026-04-23 13:38:31"
            }
        },
        {
            "type": "Feature",
            "geometry": {
                "type": "Point",
                "coordinates": [
                    -3.691548,
                    40.54625
                ]
            },
            "properties": {
                "temperatura": 29.81,
                "ph": 6.87,
                "tiempo": "2026-04-23 13:38:36"
            }
        },
        {
            "type": "Feature",
            "geometry": {
                "type": "Point",
                "coordinates": [
                    -3.69155,
                    40.54625
                ]
            },
            "properties": {
                "temperatura": 29.94,
                "ph": 6.83,
                "tiempo": "2026-04-23 13:38:42"
            }
        }
    ]
}