{
    "type": "FeatureCollection",
    "features": [
        {
            "type": "Feature",
            "geometry": {
                "type": "LineString",
                "coordinates": [
                    [
                        -3.692217,
                        40.54608
                    ],
                    [
                        -3.69222,
                        40.54608
                    ],
                    [
                        -3.692222,
                        40.54608
                    ],
                    [
                        -3.692219,
                        40.54607
                    ],
                    [
                        -3.692192,
                        40.54602
                    ],
                    [
                        -3.692188,
                        40.54602
                    ],
                    [
                        -3.692177,
                        40.54601
                    ],
                    [
                        -3.692147,
                        40.54596
                    ],
                    [
                        -3.692138,
                        40.54595
                    ],
                    [
                        -3.692125,
                        40.54593
                    ],
                    [
                        -3.692099,
                        40.54588
                    ],
                    [
                        -3.69207,
                        40.54583
                    ],
                    [
                        -3.692035,
                        40.54578
                    ],
                    [
                        -3.691995,
                        40.54571
                    ],
                    [
                        -3.691969,
                        40.54567
                    ],
                    [
                        -3.691936,
                        40.54561
                    ],
                    [
                        -3.691901,
                        40.54555
                    ],
                    [
                        -3.691872,
                        40.54549
                    ],
                    [
                        -3.691834,
                        40.54548
                    ],
                    [
                        -3.691774,
                        40.5455
                    ],
                    [
                        -3.691781,
                        40.54551
                    ],
                    [
                        -3.691798,
                        40.54555
                    ],
                    [
                        -3.69182,
                        40.54559
                    ],
                    [
                        -3.691835,
                        40.54564
                    ],
                    [
                        -3.69186,
                        40.54569
                    ],
                    [
                        -3.691888,
                        40.54574
                    ],
                    [
                        -3.691909,
                        40.54578
                    ],
                    [
                        -3.691941,
                        40.54584
                    ],
                    [
                        -3.691961,
                        40.54588
                    ],
                    [
                        -3.691988,
                        40.54593
                    ],
                    [
                        -3.692015,
                        40.54598
                    ],
                    [
                        -3.69204,
                        40.54603
                    ],
                    [
                        -3.692061,
                        40.54608
                    ],
                    [
                        -3.692086,
                        40.54612
                    ],
                    [
                        -3.692069,
                        40.54614
                    ],
                    [
                        -3.692024,
                        40.54614
                    ],
                    [
                        -3.692003,
                        40.54613
                    ],
                    [
                        -3.691965,
                        40.54607
                    ],
                    [
                        -3.69193,
                        40.54603
                    ],
                    [
                        -3.6919,
                        40.54599
                    ],
                    [
                        -3.69187,
                        40.54594
                    ],
                    [
                        -3.691838,
                        40.54589
                    ],
                    [
                        -3.691806,
                        40.54585
                    ],
                    [
                        -3.691781,
                        40.54581
                    ],
                    [
                        -3.691741,
                        40.54574
                    ],
                    [
                        -3.691715,
                        40.5457
                    ],
                    [
                        -3.691684,
                        40.54566
                    ],
                    [
                        -3.691656,
                        40.54561
                    ],
                    [
                        -3.691625,
                        40.54557
                    ],
                    [
                        -3.691594,
                        40.54553
                    ],
                    [
                        -3.691584,
                        40.54552
                    ],
                    [
                        -3.691533,
                        40.54554
                    ],
                    [
                        -3.691517,
                        40.54556
                    ],
                    [
                        -3.691539,
                        40.5456
                    ],
                    [
                        -3.691562,
                        40.54564
                    ],
                    [
                        -3.691588,
                        40.54569
                    ],
                    [
                        -3.691613,
                        40.54575
                    ],
                    [
                        -3.691632,
                        40.5458
                    ],
                    [
                        -3.691663,
                        40.54585
                    ],
                    [
                        -3.69168,
                        40.54589
                    ],
                    [
                        -3.691709,
                        40.54596
                    ],
                    [
                        -3.691732,
                        40.546
                    ],
                    [
                        -3.691751,
                        40.54604
                    ],
                    [
                        -3.691774,
                        40.54609
                    ],
                    [
                        -3.691803,
                        40.54615
                    ],
                    [
                        -3.691821,
                        40.54619
                    ],
                    [
                        -3.691836,
                        40.54622
                    ],
                    [
                        -3.691833,
                        40.54622
                    ],
                    [
                        -3.691809,
                        40.54623
                    ],
                    [
                        -3.691778,
                        40.54624
                    ],
                    [
                        -3.69177,
                        40.54623
                    ],
                    [
                        -3.691749,
                        40.54619
                    ],
                    [
                        -3.691716,
                        40.54614
                    ],
                    [
                        -3.691681,
                        40.54608
                    ],
                    [
                        -3.691659,
                        40.54603
                    ],
                    [
                        -3.691623,
                        40.54598
                    ],
                    [
                        -3.69158,
                        40.54592
                    ],
                    [
                        -3.691553,
                        40.54589
                    ],
                    [
                        -3.691526,
                        40.54584
                    ],
                    [
                        -3.691491,
                        40.54578
                    ],
                    [
                        -3.691463,
                        40.54575
                    ],
                    [
                        -3.691426,
                        40.54569
                    ],
                    [
                        -3.691397,
                        40.54565
                    ],
                    [
                        -3.691361,
                        40.54559
                    ],
                    [
                        -3.691361,
                        40.54559
                    ],
                    [
                        -3.691311,
                        40.54563
                    ],
                    [
                        -3.691319,
                        40.54565
                    ],
                    [
                        -3.691346,
                        40.54571
                    ],
                    [
                        -3.691375,
                        40.54578
                    ],
                    [
                        -3.691393,
                        40.54582
                    ],
                    [
                        -3.691411,
                        40.54587
                    ],
                    [
                        -3.691428,
                        40.54591
                    ],
                    [
                        -3.691447,
                        40.54596
                    ],
                    [
                        -3.691461,
                        40.546
                    ],
                    [
                        -3.691471,
                        40.54605
                    ],
                    [
                        -3.691489,
                        40.54612
                    ],
                    [
                        -3.691508,
                        40.54617
                    ],
                    [
                        -3.691517,
                        40.54619
                    ],
                    [
                        -3.691527,
                        40.54622
                    ],
                    [
                        -3.691548,
                        40.54625
                    ],
                    [
                        -3.69155,
                        40.54625
                    ]
                ]
            },
            "properties": {
                "nombre": "Trayectoria GPS"
            }
        }
    ]
}