{
    "type": "FeatureCollection",
    "features": [
        {
            "type": "Feature",
            "geometry": {
                "type": "LineString",
                "coordinates": [
                    [
                        -3.700993,
                        40.5457
                    ],
                    [
                        -3.700991,
                        40.54571
                    ],
                    [
                        -3.700983,
                        40.54572
                    ],
                    [
                        -3.700979,
                        40.54573
                    ],
                    [
                        -3.70098,
                        40.54573
                    ],
                    [
                        -3.700986,
                        40.54572
                    ],
                    [
                        -3.700982,
                        40.54571
                    ],
                    [
                        -3.700987,
                        40.54571
                    ],
                    [
                        -3.700985,
                        40.54572
                    ],
                    [
                        -3.700979,
                        40.54572
                    ],
                    [
                        -3.70098,
                        40.54572
                    ],
                    [
                        -3.700975,
                        40.54572
                    ],
                    [
                        -3.700977,
                        40.54572
                    ],
                    [
                        -3.70098,
                        40.54572
                    ],
                    [
                        -3.700982,
                        40.54571
                    ],
                    [
                        -3.700984,
                        40.54571
                    ],
                    [
                        -3.700987,
                        40.54571
                    ],
                    [
                        -3.700986,
                        40.54571
                    ],
                    [
                        -3.700986,
                        40.54571
                    ],
                    [
                        -3.700986,
                        40.54571
                    ],
                    [
                        -3.700981,
                        40.54572
                    ],
                    [
                        -3.700984,
                        40.54572
                    ],
                    [
                        -3.700984,
                        40.54572
                    ],
                    [
                        -3.700986,
                        40.54571
                    ],
                    [
                        -3.700985,
                        40.54571
                    ],
                    [
                        -3.700985,
                        40.54571
                    ],
                    [
                        -3.700984,
                        40.54572
                    ],
                    [
                        -3.700989,
                        40.54572
                    ],
                    [
                        -3.700986,
                        40.54572
                    ],
                    [
                        -3.700986,
                        40.54572
                    ],
                    [
                        -3.700982,
                        40.54572
                    ],
                    [
                        -3.700981,
                        40.54572
                    ],
                    [
                        -3.700981,
                        40.54572
                    ],
                    [
                        -3.700981,
                        40.54571
                    ],
                    [
                        -3.700977,
                        40.5457
                    ],
                    [
                        -3.700975,
                        40.5457
                    ],
                    [
                        -3.700978,
                        40.5457
                    ],
                    [
                        -3.70098,
                        40.5457
                    ],
                    [
                        -3.700979,
                        40.5457
                    ],
                    [
                        -3.700978,
                        40.5457
                    ],
                    [
                        -3.700977,
                        40.5457
                    ],
                    [
                        -3.700978,
                        40.5457
                    ],
                    [
                        -3.700975,
                        40.5457
                    ],
                    [
                        -3.700967,
                        40.5457
                    ],
                    [
                        -3.700974,
                        40.5457
                    ],
                    [
                        -3.700979,
                        40.5457
                    ],
                    [
                        -3.700984,
                        40.5457
                    ],
                    [
                        -3.700986,
                        40.5457
                    ],
                    [
                        -3.700985,
                        40.5457
                    ],
                    [
                        -3.700986,
                        40.5457
                    ],
                    [
                        -3.700981,
                        40.54569
                    ],
                    [
                        -3.700978,
                        40.54569
                    ],
                    [
                        -3.700975,
                        40.54569
                    ],
                    [
                        -3.700971,
                        40.54569
                    ],
                    [
                        -3.700959,
                        40.54568
                    ],
                    [
                        -3.700958,
                        40.54568
                    ],
                    [
                        -3.700956,
                        40.54568
                    ],
                    [
                        -3.700964,
                        40.54568
                    ],
                    [
                        -3.700977,
                        40.54568
                    ],
                    [
                        -3.700985,
                        40.54568
                    ],
                    [
                        -3.700989,
                        40.54568
                    ],
                    [
                        -3.700988,
                        40.54568
                    ],
                    [
                        -3.700993,
                        40.54568
                    ],
                    [
                        -3.700995,
                        40.54568
                    ],
                    [
                        -3.700998,
                        40.54568
                    ],
                    [
                        -3.700998,
                        40.54568
                    ],
                    [
                        -3.700996,
                        40.54567
                    ],
                    [
                        -3.700995,
                        40.54567
                    ],
                    [
                        -3.700995,
                        40.54568
                    ],
                    [
                        -3.700995,
                        40.54567
                    ],
                    [
                        -3.701002,
                        40.54567
                    ],
                    [
                        -3.701011,
                        40.54567
                    ],
                    [
                        -3.701022,
                        40.54567
                    ],
                    [
                        -3.701026,
                        40.54567
                    ],
                    [
                        -3.701034,
                        40.54567
                    ],
                    [
                        -3.701041,
                        40.54567
                    ],
                    [
                        -3.701067,
                        40.54566
                    ],
                    [
                        -3.701072,
                        40.54566
                    ],
                    [
                        -3.701085,
                        40.54566
                    ],
                    [
                        -3.701096,
                        40.54566
                    ],
                    [
                        -3.701107,
                        40.54565
                    ],
                    [
                        -3.70111,
                        40.54565
                    ],
                    [
                        -3.701101,
                        40.54564
                    ],
                    [
                        -3.701109,
                        40.54563
                    ],
                    [
                        -3.701126,
                        40.54562
                    ],
                    [
                        -3.701125,
                        40.54562
                    ],
                    [
                        -3.701117,
                        40.54562
                    ],
                    [
                        -3.701097,
                        40.54562
                    ],
                    [
                        -3.701081,
                        40.54563
                    ],
                    [
                        -3.701068,
                        40.54564
                    ],
                    [
                        -3.70107,
                        40.54564
                    ],
                    [
                        -3.701061,
                        40.54564
                    ],
                    [
                        -3.701052,
                        40.54563
                    ],
                    [
                        -3.701036,
                        40.54563
                    ],
                    [
                        -3.701016,
                        40.54564
                    ],
                    [
                        -3.701005,
                        40.54565
                    ],
                    [
                        -3.700991,
                        40.54565
                    ],
                    [
                        -3.700979,
                        40.54564
                    ],
                    [
                        -3.700987,
                        40.54564
                    ],
                    [
                        -3.701005,
                        40.54564
                    ],
                    [
                        -3.701007,
                        40.54565
                    ],
                    [
                        -3.701014,
                        40.54565
                    ],
                    [
                        -3.701029,
                        40.54564
                    ],
                    [
                        -3.701038,
                        40.54564
                    ],
                    [
                        -3.701051,
                        40.54564
                    ],
                    [
                        -3.701079,
                        40.54564
                    ],
                    [
                        -3.701081,
                        40.54564
                    ],
                    [
                        -3.701081,
                        40.54564
                    ],
                    [
                        -3.701082,
                        40.54564
                    ],
                    [
                        -3.701083,
                        40.54564
                    ],
                    [
                        -3.701083,
                        40.54564
                    ],
                    [
                        -3.701092,
                        40.54565
                    ],
                    [
                        -3.701097,
                        40.54565
                    ],
                    [
                        -3.7011,
                        40.54565
                    ]
                ]
            },
            "properties": {
                "nombre": "Trayectoria GPS"
            }
        }
    ]
}